{
  "norad_id": 67527,
  "name": "HULIANWANG DIGUI-151",
  "history": [
    {
      "epoch": "2026-03-28T21:49:08.168448Z",
      "apogee_km": 1149.3855216775055,
      "perigee_km": 1149.246414346656,
      "latitude_deg": 7.102088225510985e-05,
      "longitude_deg": 129.90181629319576,
      "height_km": 1149.884416778602,
      "semi_major_axis_km": 7527.45296801208,
      "eccentricity": 9.24e-06,
      "inclination_deg": 50.0092,
      "raan_deg": 283.5086,
      "arg_perigee_deg": 152.3949,
      "mean_anomaly_deg": 207.6929,
      "mean_motion_rev_day": 13.29323511
    },
    {
      "epoch": "2026-03-28T23:37:23.685888Z",
      "apogee_km": 1149.3853187323593,
      "perigee_km": 1149.2468135959416,
      "latitude_deg": 6.688696717722562e-05,
      "longitude_deg": 102.49335641902813,
      "height_km": 1149.8839734039975,
      "semi_major_axis_km": 7527.45306616415,
      "eccentricity": 9.2e-06,
      "inclination_deg": 50.0091,
      "raan_deg": 283.2389,
      "arg_perigee_deg": 151.926,
      "mean_anomaly_deg": 208.1618,
      "mean_motion_rev_day": 13.29323485
    },
    {
      "epoch": "2026-03-29T19:28:14.393280Z",
      "apogee_km": 1149.3932025433105,
      "perigee_km": 1149.238137018313,
      "latitude_deg": 2.1280345640088863e-05,
      "longitude_deg": 161.00113344042117,
      "height_km": 1149.8940189787413,
      "semi_major_axis_km": 7527.452669780811,
      "eccentricity": 1.03e-05,
      "inclination_deg": 50.0091,
      "raan_deg": 280.2731,
      "arg_perigee_deg": 157.3187,
      "mean_anomaly_deg": 202.769,
      "mean_motion_rev_day": 13.2932359
    },
    {
      "epoch": "2026-03-30T06:17:47.502240Z",
      "apogee_km": 1149.3928028364817,
      "perigee_km": 1149.2380384147145,
      "latitude_deg": 4.5795154903820746e-05,
      "longitude_deg": -3.4490021212468025,
      "height_km": 1149.8944470469605,
      "semi_major_axis_km": 7527.452420625598,
      "eccentricity": 1.028e-05,
      "inclination_deg": 50.0091,
      "raan_deg": 278.6555,
      "arg_perigee_deg": 158.941,
      "mean_anomaly_deg": 201.1467,
      "mean_motion_rev_day": 13.29323656
    },
    {
      "epoch": "2026-03-30T13:30:49.578048Z",
      "apogee_km": 1149.4015309061688,
      "perigee_km": 1149.2293027948708,
      "latitude_deg": 4.574107684827665e-05,
      "longitude_deg": -113.08255266803542,
      "height_km": 1149.9037199264005,
      "semi_major_axis_km": 7527.4524168505195,
      "eccentricity": 1.144e-05,
      "inclination_deg": 50.009,
      "raan_deg": 277.577,
      "arg_perigee_deg": 161.1613,
      "mean_anomaly_deg": 198.9264,
      "mean_motion_rev_day": 13.29323657
    },
    {
      "epoch": "2026-03-30T22:32:07.160064Z",
      "apogee_km": 1149.4037764488976,
      "perigee_km": 1149.226128582818,
      "latitude_deg": 3.098430075294317e-05,
      "longitude_deg": 109.87557513478588,
      "height_km": 1149.9056770270943,
      "semi_major_axis_km": 7527.451952515858,
      "eccentricity": 1.18e-05,
      "inclination_deg": 50.0089,
      "raan_deg": 276.2289,
      "arg_perigee_deg": 160.8971,
      "mean_anomaly_deg": 199.1906,
      "mean_motion_rev_day": 13.2932378
    },
    {
      "epoch": "2026-03-31T18:22:57.840672Z",
      "apogee_km": 1149.4115054775602,
      "perigee_km": 1149.2172972314047,
      "latitude_deg": 9.191222184867663e-06,
      "longitude_deg": 168.38348467515831,
      "height_km": 1149.9151810893527,
      "semi_major_axis_km": 7527.451401354482,
      "eccentricity": 1.29e-05,
      "inclination_deg": 50.0087,
      "raan_deg": 273.2631,
      "arg_perigee_deg": 165.4698,
      "mean_anomaly_deg": 194.6178,
      "mean_motion_rev_day": 13.29323926
    },
    {
      "epoch": "2026-04-01T17:50:19.553568Z",
      "apogee_km": 1149.4210231300813,
      "perigee_km": 1149.2072435178943,
      "latitude_deg": 2.5614994546008085e-05,
      "longitude_deg": 172.0747242486703,
      "height_km": 1149.9265405564831,
      "semi_major_axis_km": 7527.451133323987,
      "eccentricity": 1.42e-05,
      "inclination_deg": 50.0086,
      "raan_deg": 269.7581,
      "arg_perigee_deg": 171.1817,
      "mean_anomaly_deg": 188.9058,
      "mean_motion_rev_day": 13.29323997
    },
    {
      "epoch": "2026-04-02T19:05:56.774400Z",
      "apogee_km": 1149.4381286350217,
      "perigee_km": 1149.1897227544732,
      "latitude_deg": -3.283869857984153e-05,
      "longitude_deg": 148.35738427173365,
      "height_km": 1149.944635998681,
      "semi_major_axis_km": 7527.450925694747,
      "eccentricity": 1.65e-05,
      "inclination_deg": 50.0084,
      "raan_deg": 265.9833,
      "arg_perigee_deg": 176.2026,
      "mean_anomaly_deg": 183.8847,
      "mean_motion_rev_day": 13.29324052
    },
    {
      "epoch": "2026-04-02T20:54:12.290976Z",
      "apogee_km": 1149.437469583594,
      "perigee_km": 1149.1901175505172,
      "latitude_deg": -7.080673035864526e-06,
      "longitude_deg": 120.94915303611079,
      "height_km": 1149.9441130422315,
      "semi_major_axis_km": 7527.450793567055,
      "eccentricity": 1.643e-05,
      "inclination_deg": 50.0085,
      "raan_deg": 265.7138,
      "arg_perigee_deg": 177.2093,
      "mean_anomaly_deg": 182.878,
      "mean_motion_rev_day": 13.29324087
    },
    {
      "epoch": "2026-04-03T14:56:47.441184Z",
      "apogee_km": 1149.4436636024475,
      "perigee_km": 1149.1832138172676,
      "latitude_deg": 1.9166521304233663e-05,
      "longitude_deg": -153.1343878902077,
      "height_km": 1149.950433482223,
      "semi_major_axis_km": 7527.450438709857,
      "eccentricity": 1.73e-05,
      "inclination_deg": 50.0085,
      "raan_deg": 263.0177,
      "arg_perigee_deg": 181.2295,
      "mean_anomaly_deg": 178.8577,
      "mean_motion_rev_day": 13.29324181
    },
    {
      "epoch": "2026-04-04T19:48:55.689984Z",
      "apogee_km": 1149.451675762587,
      "perigee_km": 1149.1746655963052,
      "latitude_deg": -3.692678631596454e-05,
      "longitude_deg": 128.33188850633178,
      "height_km": 1149.9573750773557,
      "semi_major_axis_km": 7527.450170679445,
      "eccentricity": 1.84e-05,
      "inclination_deg": 50.0086,
      "raan_deg": 258.704,
      "arg_perigee_deg": 187.357,
      "mean_anomaly_deg": 172.7299,
      "mean_motion_rev_day": 13.29324252
    },
    {
      "epoch": "2026-04-05T10:14:59.803584Z",
      "apogee_km": 1149.4625063694393,
      "perigee_km": 1149.162913870976,
      "latitude_deg": 5.1199306341419885e-05,
      "longitude_deg": -90.93498174168542,
      "height_km": 1149.9659343234493,
      "semi_major_axis_km": 7527.449710120207,
      "eccentricity": 1.99e-05,
      "inclination_deg": 50.0086,
      "raan_deg": 256.547,
      "arg_perigee_deg": 192.2689,
      "mean_anomaly_deg": 167.8179,
      "mean_motion_rev_day": 13.29324374
    },
    {
      "epoch": "2026-04-07T19:59:16.253664Z",
      "apogee_km": 1149.4863125589882,
      "perigee_km": 1149.1370389404337,
      "latitude_deg": 1.2035883158090634e-05,
      "longitude_deg": 111.99752621349016,
      "height_km": 1149.9794764668861,
      "semi_major_axis_km": 7527.448675749711,
      "eccentricity": 2.32e-05,
      "inclination_deg": 50.0087,
      "raan_deg": 247.9193,
      "arg_perigee_deg": 202.8918,
      "mean_anomaly_deg": 157.1944,
      "mean_motion_rev_day": 13.29324648
    },
    {
      "epoch": "2026-04-08T14:01:51.381408Z",
      "apogee_km": 1149.4931432038256,
      "perigee_km": 1149.129868538933,
      "latitude_deg": 1.0229667623895446e-05,
      "longitude_deg": -162.0860466080056,
      "height_km": 1149.9810661472998,
      "semi_major_axis_km": 7527.448505871379,
      "eccentricity": 2.413e-05,
      "inclination_deg": 50.0088,
      "raan_deg": 245.2231,
      "arg_perigee_deg": 206.4583,
      "mean_anomaly_deg": 153.6277,
      "mean_motion_rev_day": 13.29324693
    },
    {
      "epoch": "2026-04-09T15:17:28.546080Z",
      "apogee_km": 1149.4960733028283,
      "perigee_km": 1149.1257228662434,
      "latitude_deg": 1.4131174459366022e-05,
      "longitude_deg": 174.19709608764893,
      "height_km": 1149.977186251141,
      "semi_major_axis_km": 7527.447898084536,
      "eccentricity": 2.46e-05,
      "inclination_deg": 50.009,
      "raan_deg": 241.4485,
      "arg_perigee_deg": 210.6533,
      "mean_anomaly_deg": 149.4325,
      "mean_motion_rev_day": 13.29324854
    },
    {
      "epoch": "2026-04-10T09:20:03.660864Z",
      "apogee_km": 1149.5080077394787,
      "perigee_km": 1149.1135694753566,
      "latitude_deg": 1.4327389930325241e-06,
      "longitude_deg": -99.88633136404462,
      "height_km": 1149.9794131324286,
      "semi_major_axis_km": 7527.447788607417,
      "eccentricity": 2.62e-05,
      "inclination_deg": 50.0089,
      "raan_deg": 238.7524,
      "arg_perigee_deg": 214.9671,
      "mean_anomaly_deg": 145.1184,
      "mean_motion_rev_day": 13.29324883
    },
    {
      "epoch": "2026-04-11T19:36:58.384224Z",
      "apogee_km": 1149.5327124105452,
      "perigee_km": 1149.0885929990363,
      "latitude_deg": 1.7307751962472008e-05,
      "longitude_deg": 99.35525888032156,
      "height_km": 1149.989519082095,
      "semi_major_axis_km": 7527.447652704791,
      "eccentricity": 2.95e-05,
      "inclination_deg": 50.0089,
      "raan_deg": 233.6299,
      "arg_perigee_deg": 219.3074,
      "mean_anomaly_deg": 140.7777,
      "mean_motion_rev_day": 13.29324919
    },
    {
      "epoch": "2026-04-13T07:42:08.611200Z",
      "apogee_km": 1149.556565951426,
      "perigee_km": 1149.0641203462365,
      "latitude_deg": 2.130634616921598e-05,
      "longitude_deg": -88.81145729961763,
      "height_km": 1149.9850011224305,
      "semi_major_axis_km": 7527.447343148831,
      "eccentricity": 3.271e-05,
      "inclination_deg": 50.0088,
      "raan_deg": 228.2378,
      "arg_perigee_deg": 227.1144,
      "mean_anomaly_deg": 132.9701,
      "mean_motion_rev_day": 13.29325001
    }
  ]
}